[{"OBJECT_NAME":"STARLINK-1954","OBJECT_ID":"2021-009H","EPOCH":"2026-03-09T23:20:25.352160","MEAN_MOTION":15.30849174,"ECCENTRICITY":0.00046184,"INCLINATION":53.0574,"RA_OF_ASC_NODE":8.8654,"ARG_OF_PERICENTER":103.3293,"MEAN_ANOMALY":256.8222,"EPHEMERIS_TYPE":0,"CLASSIFICATION_TYPE":"U","NORAD_CAT_ID":47555,"ELEMENT_SET_NO":999,"REV_AT_EPOCH":28100,"BSTAR":0.0022371791,"MEAN_MOTION_DOT":0.00067883,"MEAN_MOTION_DDOT":0},{"OBJECT_NAME":"STARLINK-32204","OBJECT_ID":"2024-150B","EPOCH":"2026-03-09T23:08:29.981760","MEAN_MOTION":15.30177988,"ECCENTRICITY":9.534e-5,"INCLINATION":53.1607,"RA_OF_ASC_NODE":305.7354,"ARG_OF_PERICENTER":121.001,"MEAN_ANOMALY":239.1085,"EPHEMERIS_TYPE":0,"CLASSIFICATION_TYPE":"U","NORAD_CAT_ID":60584,"ELEMENT_SET_NO":999,"REV_AT_EPOCH":8808,"BSTAR":6.9528664e-5,"MEAN_MOTION_DOT":1.699e-5,"MEAN_MOTION_DDOT":0}]
